NORAD_CAT_ID,OBJECT_NAME,OBJECT_TYPE,EPOCH,MEAN_MOTION,ECCENTRICITY,INCLINATION,RA_OF_ASC_NODE,ARG_OF_PERICENTER,MEAN_ANOMALY,BSTAR,MEAN_MOTION_DOT,MEAN_MOTION_DDOT,TLE_LINE0,TLE_LINE1,TLE_LINE2,SEMIMAJOR_AXIS,PERIOD,APOGEE,PERIGEE,DECAYED
53727.0,STARLINK-4701,PAYLOAD,2024-07-14 02:38:10,15.08848236,0.0001327,53.2176,83.6893,100.3334,259.7808,1.5942e-05,-3.4e-07,0.0,0 STARLINK-4701,1 53727U 22107AD  24196.10984672 -.00000034  00000-0  15942-4 0  9998,2 53727  53.2176  83.6893 0001327 100.3334 259.7808 15.08848236102832,6917.855,95.437,540.638,538.802,0.0
53727.0,STARLINK-4701,PAYLOAD,2024-07-14 08:59:43,15.08845284,0.0001299,53.2173,82.4993,99.8351,260.2788,-7.7565e-07,-3e-06,0.0,0 STARLINK-4701,1 53727U 22107AD  24196.37480824 -.00000300  00000-0 -77565-6 0  9995,2 53727  53.2173  82.4993 0001299  99.8351 260.2788 15.08845284103471,6917.864,95.437,540.628,538.831,0.0
53727.0,STARLINK-4701,PAYLOAD,2024-07-14 21:42:48,15.08838488,0.0001528,53.2183,80.1229,99.719,260.3975,5.482e-05,5.85e-06,0.0,0 STARLINK-4701,1 53727U 22107AD  24196.90473357  .00000585  00000-0  54820-4 0  9997,2 53727  53.2183  80.1229 0001528  99.7190 260.3975 15.08838488102953,6917.885,95.438,540.807,538.693,0.0
53727.0,STARLINK-4701,PAYLOAD,2024-07-15 08:50:30,15.08840546,0.0001365,53.2182,78.0437,102.4638,257.6507,9.0314e-05,1.15e-05,0.0,0 STARLINK-4701,1 53727U 22107AD  24197.36841186  .00001150  00000-0  90314-4 0  9994,2 53727  53.2182  78.0437 0001365 102.4638 257.6507 15.08840546103620,6917.879,95.438,540.688,538.799,0.0
53727.0,STARLINK-4701,PAYLOAD,2024-07-15 21:33:36,15.08831324,0.0001571,53.2187,75.6675,108.1554,251.9609,1.5073e-05,-4.8e-07,0.0,0 STARLINK-4701,1 53727U 22107AD  24197.89834158 -.00000048  00000-0  15073-4 0  9998,2 53727  53.2187  75.6675 0001571 108.1554 251.9609 15.08831324103108,6917.907,95.438,540.859,538.685,0.0
53727.0,STARLINK-4701,PAYLOAD,2024-07-15 23:08:59,15.08831649,0.000156,53.2186,75.3692,108.5652,251.551,1.6747e-05,-2.2e-07,0.0,0 STARLINK-4701,1 53727U 22107AD  24197.96458138 -.00000022  00000-0  16747-4 0  9997,2 53727  53.2186  75.3692 0001560 108.5652 251.5510 15.08831649103718,6917.906,95.438,540.85,538.692,0.0
53727.0,STARLINK-4701,PAYLOAD,2024-07-16 19:48:59,15.08841247,0.0001549,53.2187,71.5016,104.4698,255.6466,0.00010653,1.408e-05,0.0,0 STARLINK-4701,1 53727U 22107AD  24198.82569410  .00001408  00000-0  10653-3 0  9996,2 53727  53.2187  71.5016 0001549 104.4698 255.6466 15.08841247103247,6917.877,95.437,540.813,538.67,0.0
53727.0,STARLINK-4701,PAYLOAD,2024-07-16 21:24:22,15.08845917,0.0001449,53.2181,71.2039,101.9693,258.1462,9.4236e-05,1.212e-05,0.0,0 STARLINK-4701,1 53727U 22107AD  24198.89193186  .00001212  00000-0  94236-4 0  9999,2 53727  53.2181  71.2039 0001449 101.9693 258.1462 15.08845917103858,6917.862,95.437,540.73,538.725,0.0
53727.0,STARLINK-4701,PAYLOAD,2024-07-17 00:35:08,15.08852353,0.0001364,53.2182,70.6088,96.14,263.9748,0.00017406,2.484e-05,0.0,0 STARLINK-4701,1 53727U 22107AD  24199.02440614  .00002484  00000-0  17406-3 0  9991,2 53727  53.2182  70.6088 0001364  96.1400 263.9748 15.08852353103272,6917.843,95.437,540.651,538.764,0.0
53727.0,STARLINK-4701,PAYLOAD,2024-07-17 08:32:05,15.08836527,0.0001136,53.2168,69.1204,93.2708,266.8415,-3.1621e-05,-7.91e-06,0.0,0 STARLINK-4701,1 53727U 22107AD  24199.35561496 -.00000791  00000-0 -31621-4 0  9996,2 53727  53.2168  69.1204 0001136  93.2708 266.8415 15.08836527103329,6917.891,95.438,540.542,538.97,0.0
53727.0,STARLINK-4701,PAYLOAD,2024-07-17 22:50:33,15.0884972,0.0001252,53.2177,66.4442,106.9909,253.122,0.00014655,2.046e-05,0.0,0 STARLINK-4701,1 53727U 22107AD  24199.95177214  .00002046  00000-0  14655-3 0  9993,2 53727  53.2177  66.4442 0001252 106.9909 253.1220 15.08849720104016,6917.851,95.437,540.582,538.85,0.0
53727.0,STARLINK-4701,PAYLOAD,2024-07-18 00:25:56,15.0884901,0.0001259,53.2171,66.1471,110.574,249.5388,0.00017983,2.576e-05,0.0,0 STARLINK-4701,1 53727U 22107AD  24200.01801257  .00002576  00000-0  17983-3 0  9999,2 53727  53.2171  66.1471 0001259 110.5740 249.5388 15.08849010103420,6917.853,95.437,540.589,538.847,0.0
53727.0,STARLINK-4701,PAYLOAD,2024-07-18 08:22:52,15.08838804,0.0001337,53.2166,64.6592,86.2309,273.8836,3.4088e-05,2.55e-06,0.0,0 STARLINK-4701,1 53727U 22107AD  24200.34921962  .00000255  00000-0  34088-4 0  9999,2 53727  53.2166  64.6592 0001337  86.2309 273.8836 15.08838804104077,6917.884,95.438,540.674,538.824,0.0
53727.0,STARLINK-4701,PAYLOAD,2024-07-18 21:05:57,15.08843072,0.0001416,53.2166,62.2768,97.0327,263.0826,7.9206e-07,-2.75e-06,0.0,0 STARLINK-4701,1 53727U 22107AD  24200.87913886 -.00000275  00000-0  79206-6 0  9999,2 53727  53.2166  62.2768 0001416  97.0327 263.0826 15.08843072104156,6917.871,95.437,540.716,538.756,0.0
53727.0,STARLINK-4701,PAYLOAD,2024-07-19 08:13:39,15.08838045,0.0001533,53.219,60.1888,103.8425,256.2737,-2.172e-05,-6.34e-06,0.0,0 STARLINK-4701,1 53727U 22107AD  24201.34282130 -.00000634  00000-0 -21720-4 0  9999,2 53727  53.2190  60.1888 0001533 103.8425 256.2737 15.08838045104225,6917.886,95.438,540.812,538.691,0.0
53727.0,STARLINK-4701,PAYLOAD,2024-07-19 20:56:45,15.08826689,0.0001885,53.2172,57.8168,95.0962,265.0246,7.6376e-06,-1.67e-06,0.0,0 STARLINK-4701,1 53727U 22107AD  24201.87275404 -.00000167  00000-0  76376-5 0  9991,2 53727  53.2172  57.8168 0001885  95.0962 265.0246 15.08826689103703,6917.921,95.438,541.09,538.482,0.0
53727.0,STARLINK-4701,PAYLOAD,2024-07-20 00:07:32,15.08832044,0.0001411,53.2198,57.2208,107.2186,252.8961,-5.5674e-05,-1.174e-05,0.0,0 STARLINK-4701,1 53727U 22107AD  24202.00523420 -.00001174  00000-0 -55674-4 0  9998,2 53727  53.2198  57.2208 0001411 107.2186 252.8961 15.08832044104328,6917.905,95.438,540.746,538.794,0.0
53727.0,STARLINK-4701,PAYLOAD,2024-07-20 20:47:31,15.08862066,0.0001435,53.2181,53.3587,87.8011,272.3146,0.00035056,5.299e-05,0.0,0 STARLINK-4701,1 53727U 22107AD  24202.86633832  .00005299  00000-0  35056-3 0  9992,2 53727  53.2181  53.3587 0001435  87.8011 272.3146 15.08862066103859,6917.813,95.436,540.671,538.685,0.0
53727.0,STARLINK-4701,PAYLOAD,2024-07-20 23:58:17,15.08868132,0.0001375,53.2177,52.7622,91.287,268.8279,0.00064903,0.00010064,0.0,0 STARLINK-4701,1 53727U 22107AD  24202.99881768  .00010064  00000-0  64903-3 0  9998,2 53727  53.2177  52.7622 0001375  91.2870 268.8279 15.08868132104478,6917.794,95.436,540.611,538.708,0.0
53727.0,STARLINK-4701,PAYLOAD,2024-07-21 20:38:19,15.0885002,0.0001394,53.2173,48.9001,97.2819,262.8332,0.00017296,2.467e-05,0.0,0 STARLINK-4701,1 53727U 22107AD  24203.85994266  .00002467  00000-0  17296-3 0  9993,2 53727  53.2173  48.9001 0001394  97.2819 262.8332 15.08850020104002,6917.85,95.437,540.679,538.75,0.0
53727.0,STARLINK-4701,PAYLOAD,2024-07-22 14:07:33,15.08837758,0.0001476,53.217,45.6237,98.5196,261.5963,0.00020062,2.906e-05,0.0,0 STARLINK-4701,1 53727U 22107AD  24204.58858511  .00002906  00000-0  20062-3 0  9999,2 53727  53.2170  45.6237 0001476  98.5196 261.5963 15.08837758104714,6917.887,95.438,540.773,538.731,0.0
53727.0,STARLINK-4701,PAYLOAD,2024-07-22 23:39:52,15.08847926,0.0001539,53.2172,43.8388,105.6006,254.5156,0.00023601,3.471e-05,0.0,0 STARLINK-4701,1 53727U 22107AD  24204.98602161  .00003471  00000-0  23601-3 0  9991,2 53727  53.2172  43.8388 0001539 105.6006 254.5156 15.08847926104177,6917.856,95.437,540.786,538.657,0.0
53727.0,STARLINK-4701,PAYLOAD,2024-07-23 23:30:39,15.08842629,0.0001633,53.2161,39.3818,85.7407,274.3772,0.00018539,2.664e-05,0.0,0 STARLINK-4701,1 53727U 22107AD  24205.97962692  .00002664  00000-0  18539-3 0  9996,2 53727  53.2161  39.3818 0001633  85.7407 274.3772 15.08842629104327,6917.872,95.437,540.867,538.608,0.0
53727.0,STARLINK-4701,PAYLOAD,2024-07-25 12:04:31,15.08844491,0.0001049,53.2167,32.542,82.5792,277.5319,0.00019193,2.768e-05,0.0,0 STARLINK-4701,1 53727U 22107AD  24207.50314457  .00002768  00000-0  19193-3 0  9999,2 53727  53.2167  32.5420 0001049  82.5792 277.5319 15.08844491104556,6917.867,95.437,540.457,539.006,0.0
53727.0,STARLINK-4701,PAYLOAD,2024-07-25 21:36:50,15.08842868,4.51e-05,53.2174,30.7577,70.8648,289.2393,0.00017211,2.453e-05,0.0,0 STARLINK-4701,1 53727U 22107AD  24207.90058387  .00002453  00000-0  17211-3 0  9990,2 53727  53.2174  30.7577 0000451  70.8648 289.2393 15.08842868105215,6917.872,95.437,540.049,539.425,0.0
53727.0,STARLINK-4701,PAYLOAD,2024-07-26 05:33:46,15.08837672,0.0001254,53.2175,29.2702,86.3063,273.8072,5.0994e-05,5.24e-06,0.0,0 STARLINK-4701,1 53727U 22107AD  24208.23178856  .00000524  00000-0  50994-4 0  9994,2 53727  53.2175  29.2702 0001254  86.3063 273.8072 15.08837672104662,6917.888,95.438,540.62,538.885,0.0
53727.0,STARLINK-4701,PAYLOAD,2024-07-26 21:27:37,15.08847555,0.0001347,53.214,26.2952,89.7353,270.3793,0.00033551,5.057e-05,0.0,0 STARLINK-4701,1 53727U 22107AD  24208.89418266  .00005057  00000-0  33551-3 0  9993,2 53727  53.2140  26.2952 0001347  89.7353 270.3793 15.08847555105361,6917.857,95.437,540.654,538.79,0.0
53727.0,STARLINK-4701,PAYLOAD,2024-07-26 23:03:00,15.08858463,0.0001227,53.2169,26.0007,84.9084,275.2048,0.00049746,7.642e-05,0.0,0 STARLINK-4701,1 53727U 22107AD  24208.96041709  .00007642  00000-0  49746-3 0  9990,2 53727  53.2169  26.0007 0001227  84.9084 275.2048 15.08858463104777,6917.824,95.436,540.538,538.84,0.0
53727.0,STARLINK-4701,PAYLOAD,2024-07-27 21:18:25,15.08834601,0.000141,53.2183,21.8408,63.1418,296.9718,8.7157e-05,1.099e-05,0.0,0 STARLINK-4701,1 53727U 22107AD  24209.88779417  .00001099  00000-0  87157-4 0  9995,2 53727  53.2183  21.8408 0001410  63.1418 296.9718 15.08834601105510,6917.897,95.438,540.737,538.786,0.0
53727.0,STARLINK-4701,PAYLOAD,2024-07-27 22:53:48,15.0883689,0.0001603,53.218,21.5437,65.3616,294.7543,0.00011553,1.551e-05,0.0,0 STARLINK-4701,1 53727U 22107AD  24209.95403372  .00001551  00000-0  11553-3 0  9996,2 53727  53.2180  21.5437 0001603  65.3616 294.7543 15.08836890104922,6917.89,95.438,540.864,538.646,0.0
